NORAD_CAT_ID,OBJECT_NAME,OBJECT_TYPE,EPOCH,MEAN_MOTION,ECCENTRICITY,INCLINATION,RA_OF_ASC_NODE,ARG_OF_PERICENTER,MEAN_ANOMALY,BSTAR,MEAN_MOTION_DOT,MEAN_MOTION_DDOT,TLE_LINE0,TLE_LINE1,TLE_LINE2,SEMIMAJOR_AXIS,PERIOD,APOGEE,PERIGEE,DECAYED
53177.0,STARLINK-4298,PAYLOAD,2024-02-08 22:48:22,15.08849613,0.0001656,53.2191,309.7162,99.6767,260.4412,-0.00010974,-2.035e-05,0.0,0 STARLINK-4298,1 53177U 22083AX  24039.95026534 -.00002035  00000-0 -10974-3 0  9996,2 53177  53.2191 309.7162 0001656  99.6767 260.4412 15.08849613 87005,6917.851,95.437,540.862,538.57,0.0
53177.0,STARLINK-4298,PAYLOAD,2024-02-09 03:34:31,15.08854504,0.000165,53.2184,308.8214,106.8345,253.2828,-6.7424e-05,-1.361e-05,0.0,0 STARLINK-4298,1 53177U 22083AX  24040.14897890 -.00001361  00000-0 -67424-4 0  9994,2 53177  53.2184 308.8214 0001650 106.8345 253.2828 15.08854504 87671,6917.836,95.437,540.842,538.56,0.0
53177.0,STARLINK-4298,PAYLOAD,2024-02-09 17:53:01,15.08831266,0.0001686,53.2163,306.1445,107.3169,252.8008,7.6355e-05,9.27e-06,0.0,0 STARLINK-4298,1 53177U 22083AX  24040.74515056  .00000927  00000-0  76355-4 0  9999,2 53177  53.2163 306.1445 0001686 107.3169 252.8008 15.08831266 87769,6917.907,95.438,540.938,538.606,0.0
53177.0,STARLINK-4298,PAYLOAD,2024-02-10 03:25:19,15.08837326,0.0001664,53.2166,304.3619,108.9524,251.1648,5.5364e-05,5.93e-06,0.0,0 STARLINK-4298,1 53177U 22083AX  24041.14258796  .00000593  00000-0  55364-4 0  9995,2 53177  53.2166 304.3619 0001664 108.9524 251.1648 15.08837326 87184,6917.889,95.438,540.905,538.602,0.0
53177.0,STARLINK-4298,PAYLOAD,2024-02-10 22:29:57,15.08842285,0.0001467,53.2172,300.7924,106.9634,253.1519,-5.9644e-06,-3.83e-06,0.0,0 STARLINK-4298,1 53177U 22083AX  24041.93746944 -.00000383  00000-0 -59644-5 0  9994,2 53177  53.2172 300.7924 0001467 106.9634 253.1519 15.08842285 87304,6917.873,95.437,540.753,538.724,0.0
53177.0,STARLINK-4298,PAYLOAD,2024-02-11 03:16:06,15.08845337,0.0001631,53.2173,299.8992,117.5361,242.5797,1.3997e-05,-6.5e-07,0.0,0 STARLINK-4298,1 53177U 22083AX  24042.13618615 -.00000065  00000-0  13997-4 0  9996,2 53177  53.2173 299.8992 0001631 117.5361 242.5797 15.08845337 87330,6917.864,95.437,540.857,538.601,0.0
53177.0,STARLINK-4298,PAYLOAD,2024-02-11 17:34:35,15.08837824,0.0001608,53.2171,297.2222,110.9489,249.1675,2.4874e-05,1.08e-06,0.0,0 STARLINK-4298,1 53177U 22083AX  24042.73235214  .00000108  00000-0  24874-4 0  9995,2 53177  53.2171 297.2222 0001608 110.9489 249.1675 15.08837824 88069,6917.887,95.438,540.864,538.64,0.0
53177.0,STARLINK-4298,PAYLOAD,2024-02-11 22:20:44,15.08839106,0.0001495,53.2175,296.3298,106.4376,253.678,2.7641e-05,1.52e-06,0.0,0 STARLINK-4298,1 53177U 22083AX  24042.93107125  .00000152  00000-0  27641-4 0  9990,2 53177  53.2175 296.3298 0001495 106.4376 253.6780 15.08839106 87459,6917.883,95.438,540.782,538.714,0.0
53177.0,STARLINK-4298,PAYLOAD,2024-02-12 03:06:53,15.08839856,0.0001533,53.2175,295.4378,108.7896,251.3263,3.2062e-05,2.22e-06,0.0,0 STARLINK-4298,1 53177U 22083AX  24043.12979052  .00000222  00000-0  32062-4 0  9999,2 53177  53.2175 295.4378 0001533 108.7896 251.3263 15.08839856 87489,6917.881,95.438,540.806,538.685,0.0
53177.0,STARLINK-4298,PAYLOAD,2024-02-12 22:11:31,15.088427,0.000181,53.2177,291.872,125.7979,234.3181,-7.3973e-06,-4.06e-06,0.0,0 STARLINK-4298,1 53177U 22083AX  24043.92467121 -.00000406  00000-0 -73973-5 0  9999,2 53177  53.2177 291.8720 0001810 125.7979 234.3181 15.08842700 87607,6917.872,95.437,540.989,538.485,0.0
53177.0,STARLINK-4298,PAYLOAD,2024-02-13 02:57:40,15.08841653,0.0001608,53.2176,290.9792,98.733,261.3845,5.0767e-05,5.2e-06,0.0,0 STARLINK-4298,1 53177U 22083AX  24044.12339118  .00000520  00000-0  50767-4 0  9996,2 53177  53.2176 290.9792 0001608  98.7330 261.3845 15.08841653 88277,6917.875,95.437,540.853,538.628,0.0
53177.0,STARLINK-4298,PAYLOAD,2024-02-13 09:19:13,15.08843291,0.0001486,53.217,289.7905,79.6748,280.4411,1.2482e-05,-8.9e-07,0.0,0 STARLINK-4298,1 53177U 22083AX  24044.38835193 -.00000089  00000-0  12482-4 0  9991,2 53177  53.2170 289.7905 0001486  79.6748 280.4411 15.08843291 87672,6917.87,95.437,540.763,538.707,0.0
53177.0,STARLINK-4298,PAYLOAD,2024-02-13 22:02:20,15.08822812,0.0001415,53.2176,287.4233,97.2309,262.8844,-8.2003e-05,-1.592e-05,0.0,0 STARLINK-4298,1 53177U 22083AX  24044.91829333 -.00001592  00000-0 -82003-4 0  9996,2 53177  53.2176 287.4233 0001415  97.2309 262.8844 15.08822812 87757,6917.933,95.439,540.777,538.819,0.0
53177.0,STARLINK-4298,PAYLOAD,2024-02-14 01:13:06,15.08823546,0.000153,53.2177,286.8172,103.6699,256.4463,-7.981e-05,-1.557e-05,0.0,0 STARLINK-4298,1 53177U 22083AX  24045.05077260 -.00001557  00000-0 -79810-4 0  9999,2 53177  53.2177 286.8172 0001530 103.6699 256.4463 15.08823546 88410,6917.931,95.439,540.854,538.737,0.0
53177.0,STARLINK-4298,PAYLOAD,2024-02-14 15:31:34,15.08833329,0.0001903,53.2164,284.1433,55.6596,304.4576,6.7991e-05,7.94e-06,0.0,0 STARLINK-4298,1 53177U 22083AX  24045.64692747  .00000794  00000-0  67991-4 0  9994,2 53177  53.2164 284.1433 0001903  55.6596 304.4576 15.08833329 88502,6917.901,95.438,541.082,538.449,0.0
53177.0,STARLINK-4298,PAYLOAD,2024-02-14 21:53:06,15.0883889,0.0001664,53.2155,282.9571,61.2224,298.8935,0.00014495,2.02e-05,0.0,0 STARLINK-4298,1 53177U 22083AX  24045.91188020  .00002020  00000-0  14495-3 0  9992,2 53177  53.2155 282.9571 0001664  61.2224 298.8935 15.08838890 87902,6917.884,95.438,540.9,538.598,0.0
53177.0,STARLINK-4298,PAYLOAD,2024-02-15 01:03:51,15.08850827,0.0001513,53.2169,282.3604,68.3871,291.7282,0.00019323,2.789e-05,0.0,0 STARLINK-4298,1 53177U 22083AX  24046.04435110  .00002789  00000-0  19323-3 0  9999,2 53177  53.2169 282.3604 0001513  68.3871 291.7282 15.08850827 88561,6917.847,95.437,540.759,538.666,0.0
53177.0,STARLINK-4298,PAYLOAD,2024-02-15 20:08:30,15.08836517,0.0001524,53.2166,278.7899,87.7636,272.3531,0.00021612,3.153e-05,0.0,0 STARLINK-4298,1 53177U 22083AX  24046.83923879  .00003153  00000-0  21612-3 0  9990,2 53177  53.2166 278.7899 0001524  87.7636 272.3531 15.08836517 88684,6917.891,95.438,540.81,538.702,0.0
53177.0,STARLINK-4298,PAYLOAD,2024-02-15 21:43:53,15.08838404,0.0001339,53.2161,278.492,90.6857,269.4288,0.00019357,2.794e-05,0.0,0 STARLINK-4298,1 53177U 22083AX  24046.90547768  .00002794  00000-0  19357-3 0  9990,2 53177  53.2161 278.4920 0001339  90.6857 269.4288 15.08838404 88057,6917.885,95.438,540.677,538.824,0.0
53177.0,STARLINK-4298,PAYLOAD,2024-02-16 00:54:39,15.08842009,0.0001426,53.2166,277.8966,88.8823,271.2332,0.00021787,3.181e-05,0.0,0 STARLINK-4298,1 53177U 22083AX  24047.03795497  .00003181  00000-0  21787-3 0  9990,2 53177  53.2166 277.8966 0001426  88.8823 271.2332 15.08842009 88073,6917.874,95.437,540.726,538.753,0.0
53177.0,STARLINK-4298,PAYLOAD,2024-02-16 21:34:40,15.0884796,0.00015,53.2165,274.0301,88.1916,271.9248,-9.6772e-05,-1.828e-05,0.0,0 STARLINK-4298,1 53177U 22083AX  24047.89907916 -.00001828  00000-0 -96772-4 0  9990,2 53177  53.2165 274.0301 0001500  88.1916 271.9248 15.08847960 88202,6917.856,95.437,540.759,538.683,0.0
53177.0,STARLINK-4298,PAYLOAD,2024-02-17 00:45:26,15.08849796,0.0001529,53.2166,273.4344,92.6725,267.4442,-8.4271e-05,-1.629e-05,0.0,0 STARLINK-4298,1 53177U 22083AX  24048.03155663 -.00001629  00000-0 -84271-4 0  9991,2 53177  53.2166 273.4344 0001529  92.6725 267.4442 15.08849796 88869,6917.85,95.437,540.773,538.658,0.0
53177.0,STARLINK-4298,PAYLOAD,2024-02-17 21:25:27,15.0884594,0.0001325,53.216,269.5683,85.2476,274.8667,-4.4847e-05,-1.002e-05,0.0,0 STARLINK-4298,1 53177U 22083AX  24048.89267602 -.00001002  00000-0 -44847-4 0  9992,2 53177  53.2160 269.5683 0001325  85.2476 274.8667 15.08845940 88352,6917.862,95.437,540.644,538.811,0.0
53177.0,STARLINK-4298,PAYLOAD,2024-02-18 14:54:41,15.08835675,0.0001312,53.2163,266.2968,91.6841,268.4302,9.9631e-05,1.298e-05,0.0,0 STARLINK-4298,1 53177U 22083AX  24049.62131586  .00001298  00000-0  99631-4 0  9991,2 53177  53.2163 266.2968 0001312  91.6841 268.4302 15.08835675 88469,6917.894,95.438,540.666,538.851,0.0
53177.0,STARLINK-4298,PAYLOAD,2024-02-18 19:40:50,15.08845971,0.0001351,53.2165,265.4093,99.3422,260.7723,4.9015e-05,4.92e-06,0.0,0 STARLINK-4298,1 53177U 22083AX  24049.82003190  .00000492  00000-0  49015-4 0  9998,2 53177  53.2165 265.4093 0001351  99.3422 260.7723 15.08845971 89131,6917.862,95.437,540.662,538.793,0.0
53177.0,STARLINK-4298,PAYLOAD,2024-02-18 21:16:13,15.08848598,0.0001255,53.216,265.1096,90.6425,269.4711,8.6749e-05,1.093e-05,0.0,0 STARLINK-4298,1 53177U 22083AX  24049.88626882  .00001093  00000-0  86749-4 0  9996,2 53177  53.2160 265.1096 0001255  90.6425 269.4711 15.08848598 88507,6917.854,95.437,540.587,538.851,0.0
53177.0,STARLINK-4298,PAYLOAD,2024-02-19 06:48:32,15.08843676,0.0001114,53.2144,263.3223,75.0716,285.0399,6.3077e-05,7.16e-06,0.0,0 STARLINK-4298,1 53177U 22083AX  24050.28371084  .00000716  00000-0  63077-4 0  9993,2 53177  53.2144 263.3223 0001114  75.0716 285.0399 15.08843676 88569,6917.869,95.437,540.505,538.964,0.0
53177.0,STARLINK-4298,PAYLOAD,2024-02-19 19:31:39,15.08829486,0.0001522,53.2176,260.9469,92.3912,267.7254,-6.6933e-05,-1.353e-05,0.0,0 STARLINK-4298,1 53177U 22083AX  24050.81364763 -.00001353  00000-0 -66933-4 0  9992,2 53177  53.2176 260.9469 0001522  92.3912 267.7254 15.08829486 89282,6917.913,95.438,540.83,538.725,0.0
53177.0,STARLINK-4298,PAYLOAD,2024-02-19 21:07:02,15.08829268,0.0001392,53.2169,260.652,91.055,269.0602,-5.3385e-05,-1.137e-05,0.0,0 STARLINK-4298,1 53177U 22083AX  24050.87988760 -.00001137  00000-0 -53385-4 0  9994,2 53177  53.2169 260.6520 0001392  91.0550 269.0602 15.08829268 88658,6917.913,95.438,540.741,538.815,0.0
53177.0,STARLINK-4298,PAYLOAD,2024-02-20 06:39:20,15.0883455,0.0001425,53.2174,258.8676,90.3339,269.7817,-2.866e-06,-3.34e-06,0.0,0 STARLINK-4298,1 53177U 22083AX  24051.27732467 -.00000334  00000-0 -28660-5 0  9997,2 53177  53.2174 258.8676 0001425  90.3339 269.7817 15.08834550 89352,6917.897,95.438,540.748,538.776,0.0
